STARLINK-4455           
1 53500U 22099AM  25248.25262797  .00001011  00000+0  83225-4 0  9992
2 53500  97.6155   8.6661 0000318 243.7123 116.4068 15.01269739168160
STARLINK-4434           
1 53501U 22099AN  25248.31004772  .00004715  00000+0  37133-3 0  9997
2 53501  97.6160   8.7218 0002191 157.2681 202.8641 15.01266774168179
STARLINK-4435           
1 53502U 22099AP  25248.24892668  .00000708  00000+0  59649-4 0  9994
2 53502  97.6161   8.6602 0000720 208.1115 152.0070 15.01270662168163
STARLINK-4461           
1 53503U 22099AQ  25248.25003472  .00129840  00000+0  20945-2 0  9997
2 53503  97.6557  11.2308 0001255  76.2491  19.4432 15.52443277  5855
STARLINK-4448           
1 53504U 22099AR  25248.24707452 -.00002465  00000+0 -18730-3 0  9991
2 53504  97.6161   8.6572 0001383 197.3545 162.7633 15.01280352168163
STARLINK-4446           
1 53505U 22099AS  25248.30633039  .00000706  00000+0  59486-4 0  9996
2 53505  97.6169   8.7132 0002756 147.1091 213.0305 15.01261043168172
STARLINK-4437           
1 53506U 22099AT  25248.24519334  .00009722  00000+0  75953-3 0  9994
2 53506  97.6197   8.6477 0002899 193.5495 166.5652 15.01301886168162
STARLINK-4443           
1 53508U 22099AV  25248.24152339  .00001150  00000+0  94091-4 0  9996
2 53508  97.6169   8.6500 0002950 161.8321 198.3010 15.01264756168169
STARLINK-4402           
1 53509U 22099AW  25248.30263240 -.00000741  00000+0 -53146-4 0  9991
2 53509  97.6188   8.7049 0001204 124.9929 235.1409 15.01244575168175
STARLINK-4511           
1 53527U 22101A   25247.97590131  .00130632  00000+0  22442-2 0  9993
2 53527  53.2069 151.2540 0005741 121.5989 238.5582 15.50211792168640
STARLINK-4503           
1 53528U 22101B   25248.10862604  .00003418  00000+0  23274-3 0  9993
2 53528  53.2165 187.2260 0001347  89.7404 270.3743 15.08839338168144
STARLINK-4478           
1 53529U 22101C   25248.10127208 -.00005750  00000+0 -34322-3 0  9997
2 53529  53.2166 187.2691 0001354  82.9033 277.2113 15.08865004168141
STARLINK-4482           
1 53530U 22101D   25248.11601292 -.00003094  00000+0 -17646-3 0  9999
2 53530  53.2165 187.4121 0001339 100.5638 259.5505 15.08830447168144
STARLINK-4487           
1 53531U 22101E   25248.09757508 -.00029476  00000+0 -18350-2 0  9993
2 53531  53.2170 187.2747 0000751  96.1877 263.9200 15.08969673168140
STARLINK-4483           
1 53532U 22101F   25248.26318461  .00000604  00000+0  56012-4 0  9993
2 53532  53.2157 186.5338 0001280 101.9612 258.1523 15.08842010168176
STARLINK-4493           
1 53533U 22101G   25248.06079264  .00005547  00000+0  36650-3 0  9993
2 53533  53.2162 187.4342 0000786 102.2961 257.8119 15.08820679168140
