[{"OBJECT_NAME":"STARLINK-4455","OBJECT_ID":"2022-099AM","EPOCH":"2025-09-05T06:03:47.056608","MEAN_MOTION":15.01269739,"ECCENTRICITY":3.184e-5,"INCLINATION":97.6155,"RA_OF_ASC_NODE":8.6661,"ARG_OF_PERICENTER":243.7123,"MEAN_ANOMALY":116.4068,"EPHEMERIS_TYPE":0,"CLASSIFICATION_TYPE":"U","NORAD_CAT_ID":53500,"ELEMENT_SET_NO":999,"REV_AT_EPOCH":16816,"BSTAR":8.322451e-5,"MEAN_MOTION_DOT":1.011e-5,"MEAN_MOTION_DDOT":0},{"OBJECT_NAME":"STARLINK-4434","OBJECT_ID":"2022-099AN","EPOCH":"2025-09-05T07:26:28.123008","MEAN_MOTION":15.01266774,"ECCENTRICITY":0.00021918,"INCLINATION":97.616,"RA_OF_ASC_NODE":8.7218,"ARG_OF_PERICENTER":157.2681,"MEAN_ANOMALY":202.8641,"EPHEMERIS_TYPE":0,"CLASSIFICATION_TYPE":"U","NORAD_CAT_ID":53501,"ELEMENT_SET_NO":999,"REV_AT_EPOCH":16817,"BSTAR":0.00037132557,"MEAN_MOTION_DOT":4.715e-5,"MEAN_MOTION_DDOT":0},{"OBJECT_NAME":"STARLINK-4435","OBJECT_ID":"2022-099AP","EPOCH":"2025-09-05T05:58:27.265152","MEAN_MOTION":15.01270662,"ECCENTRICITY":7.2e-5,"INCLINATION":97.6161,"RA_OF_ASC_NODE":8.6602,"ARG_OF_PERICENTER":208.1115,"MEAN_ANOMALY":152.007,"EPHEMERIS_TYPE":0,"CLASSIFICATION_TYPE":"U","NORAD_CAT_ID":53502,"ELEMENT_SET_NO":999,"REV_AT_EPOCH":16816,"BSTAR":5.9648921e-5,"MEAN_MOTION_DOT":7.08e-6,"MEAN_MOTION_DDOT":0},{"OBJECT_NAME":"STARLINK-4461","OBJECT_ID":"2022-099AQ","EPOCH":"2025-09-05T06:00:02.999808","MEAN_MOTION":15.52443277,"ECCENTRICITY":0.00012559,"INCLINATION":97.6557,"RA_OF_ASC_NODE":11.2308,"ARG_OF_PERICENTER":76.2491,"MEAN_ANOMALY":19.4432,"EPHEMERIS_TYPE":0,"CLASSIFICATION_TYPE":"U","NORAD_CAT_ID":53503,"ELEMENT_SET_NO":999,"REV_AT_EPOCH":585,"BSTAR":0.0020944839,"MEAN_MOTION_DOT":0.0012984,"MEAN_MOTION_DDOT":0},{"OBJECT_NAME":"STARLINK-4448","OBJECT_ID":"2022-099AR","EPOCH":"2025-09-05T05:55:47.238528","MEAN_MOTION":15.01280352,"ECCENTRICITY":0.00013838,"INCLINATION":97.6161,"RA_OF_ASC_NODE":8.6572,"ARG_OF_PERICENTER":197.3545,"MEAN_ANOMALY":162.7633,"EPHEMERIS_TYPE":0,"CLASSIFICATION_TYPE":"U","NORAD_CAT_ID":53504,"ELEMENT_SET_NO":999,"REV_AT_EPOCH":16816,"BSTAR":-0.00018729864,"MEAN_MOTION_DOT":-2.465e-5,"MEAN_MOTION_DDOT":0},{"OBJECT_NAME":"STARLINK-4446","OBJECT_ID":"2022-099AS","EPOCH":"2025-09-05T07:21:06.945696","MEAN_MOTION":15.01261043,"ECCENTRICITY":0.00027562,"INCLINATION":97.6169,"RA_OF_ASC_NODE":8.7132,"ARG_OF_PERICENTER":147.1091,"MEAN_ANOMALY":213.0305,"EPHEMERIS_TYPE":0,"CLASSIFICATION_TYPE":"U","NORAD_CAT_ID":53505,"ELEMENT_SET_NO":999,"REV_AT_EPOCH":16817,"BSTAR":5.9486253e-5,"MEAN_MOTION_DOT":7.06e-6,"MEAN_MOTION_DDOT":0},{"OBJECT_NAME":"STARLINK-4437","OBJECT_ID":"2022-099AT","EPOCH":"2025-09-05T05:53:04.704576","MEAN_MOTION":15.01301886,"ECCENTRICITY":0.00028996,"INCLINATION":97.6197,"RA_OF_ASC_NODE":8.6477,"ARG_OF_PERICENTER":193.5495,"MEAN_ANOMALY":166.5652,"EPHEMERIS_TYPE":0,"CLASSIFICATION_TYPE":"U","NORAD_CAT_ID":53506,"ELEMENT_SET_NO":999,"REV_AT_EPOCH":16816,"BSTAR":0.00075953492,"MEAN_MOTION_DOT":9.722e-5,"MEAN_MOTION_DDOT":0},{"OBJECT_NAME":"STARLINK-4443","OBJECT_ID":"2022-099AV","EPOCH":"2025-09-05T05:47:47.620896","MEAN_MOTION":15.01264756,"ECCENTRICITY":0.00029503,"INCLINATION":97.6169,"RA_OF_ASC_NODE":8.65,"ARG_OF_PERICENTER":161.8321,"MEAN_ANOMALY":198.301,"EPHEMERIS_TYPE":0,"CLASSIFICATION_TYPE":"U","NORAD_CAT_ID":53508,"ELEMENT_SET_NO":999,"REV_AT_EPOCH":16816,"BSTAR":9.4090647e-5,"MEAN_MOTION_DOT":1.15e-5,"MEAN_MOTION_DDOT":0},{"OBJECT_NAME":"STARLINK-4402","OBJECT_ID":"2022-099AW","EPOCH":"2025-09-05T07:15:47.439360","MEAN_MOTION":15.01244575,"ECCENTRICITY":0.00012043,"INCLINATION":97.6188,"RA_OF_ASC_NODE":8.7049,"ARG_OF_PERICENTER":124.9929,"MEAN_ANOMALY":235.1409,"EPHEMERIS_TYPE":0,"CLASSIFICATION_TYPE":"U","NORAD_CAT_ID":53509,"ELEMENT_SET_NO":999,"REV_AT_EPOCH":16817,"BSTAR":-5.3146427e-5,"MEAN_MOTION_DOT":-7.41e-6,"MEAN_MOTION_DDOT":0},{"OBJECT_NAME":"STARLINK-4511","OBJECT_ID":"2022-101A","EPOCH":"2025-09-04T23:25:17.873184","MEAN_MOTION":15.50211792,"ECCENTRICITY":0.00057413,"INCLINATION":53.2069,"RA_OF_ASC_NODE":151.254,"ARG_OF_PERICENTER":121.5989,"MEAN_ANOMALY":238.5582,"EPHEMERIS_TYPE":0,"CLASSIFICATION_TYPE":"U","NORAD_CAT_ID":53527,"ELEMENT_SET_NO":999,"REV_AT_EPOCH":16864,"BSTAR":0.0022442499,"MEAN_MOTION_DOT":0.00130632,"MEAN_MOTION_DDOT":0},{"OBJECT_NAME":"STARLINK-4503","OBJECT_ID":"2022-101B","EPOCH":"2025-09-05T02:36:25.289856","MEAN_MOTION":15.08839338,"ECCENTRICITY":0.00013473,"INCLINATION":53.2165,"RA_OF_ASC_NODE":187.226,"ARG_OF_PERICENTER":89.7404,"MEAN_ANOMALY":270.3743,"EPHEMERIS_TYPE":0,"CLASSIFICATION_TYPE":"U","NORAD_CAT_ID":53528,"ELEMENT_SET_NO":999,"REV_AT_EPOCH":16814,"BSTAR":0.0002327427,"MEAN_MOTION_DOT":3.418e-5,"MEAN_MOTION_DDOT":0},{"OBJECT_NAME":"STARLINK-4478","OBJECT_ID":"2022-101C","EPOCH":"2025-09-05T02:25:49.907712","MEAN_MOTION":15.08865004,"ECCENTRICITY":0.00013541,"INCLINATION":53.2166,"RA_OF_ASC_NODE":187.2691,"ARG_OF_PERICENTER":82.9033,"MEAN_ANOMALY":277.2113,"EPHEMERIS_TYPE":0,"CLASSIFICATION_TYPE":"U","NORAD_CAT_ID":53529,"ELEMENT_SET_NO":999,"REV_AT_EPOCH":16814,"BSTAR":-0.00034322159,"MEAN_MOTION_DOT":-5.75e-5,"MEAN_MOTION_DDOT":0},{"OBJECT_NAME":"STARLINK-4482","OBJECT_ID":"2022-101D","EPOCH":"2025-09-05T02:47:03.516288","MEAN_MOTION":15.08830447,"ECCENTRICITY":0.00013398,"INCLINATION":53.2165,"RA_OF_ASC_NODE":187.4121,"ARG_OF_PERICENTER":100.5638,"MEAN_ANOMALY":259.5505,"EPHEMERIS_TYPE":0,"CLASSIFICATION_TYPE":"U","NORAD_CAT_ID":53530,"ELEMENT_SET_NO":999,"REV_AT_EPOCH":16814,"BSTAR":-0.00017646067,"MEAN_MOTION_DOT":-3.094e-5,"MEAN_MOTION_DDOT":0},{"OBJECT_NAME":"STARLINK-4487","OBJECT_ID":"2022-101E","EPOCH":"2025-09-05T02:20:30.486912","MEAN_MOTION":15.08969673,"ECCENTRICITY":7.51e-5,"INCLINATION":53.217,"RA_OF_ASC_NODE":187.2747,"ARG_OF_PERICENTER":96.1877,"MEAN_ANOMALY":263.92,"EPHEMERIS_TYPE":0,"CLASSIFICATION_TYPE":"U","NORAD_CAT_ID":53531,"ELEMENT_SET_NO":999,"REV_AT_EPOCH":16814,"BSTAR":-0.0018350128,"MEAN_MOTION_DOT":-0.00029476,"MEAN_MOTION_DDOT":0},{"OBJECT_NAME":"STARLINK-4483","OBJECT_ID":"2022-101F","EPOCH":"2025-09-05T06:18:59.150304","MEAN_MOTION":15.0884201,"ECCENTRICITY":0.000128,"INCLINATION":53.2157,"RA_OF_ASC_NODE":186.5338,"ARG_OF_PERICENTER":101.9612,"MEAN_ANOMALY":258.1523,"EPHEMERIS_TYPE":0,"CLASSIFICATION_TYPE":"U","NORAD_CAT_ID":53532,"ELEMENT_SET_NO":999,"REV_AT_EPOCH":16817,"BSTAR":5.6011953e-5,"MEAN_MOTION_DOT":6.04e-6,"MEAN_MOTION_DDOT":0},{"OBJECT_NAME":"STARLINK-4493","OBJECT_ID":"2022-101G","EPOCH":"2025-09-05T01:27:32.484096","MEAN_MOTION":15.08820679,"ECCENTRICITY":7.865e-5,"INCLINATION":53.2162,"RA_OF_ASC_NODE":187.4342,"ARG_OF_PERICENTER":102.2961,"MEAN_ANOMALY":257.8119,"EPHEMERIS_TYPE":0,"CLASSIFICATION_TYPE":"U","NORAD_CAT_ID":53533,"ELEMENT_SET_NO":999,"REV_AT_EPOCH":16814,"BSTAR":0.00036649585,"MEAN_MOTION_DOT":5.547e-5,"MEAN_MOTION_DDOT":0}]
